{"type": "FeatureCollection", "features": [ {"type": "Feature", "properties": {"norad_id": 28659, "name": "DIRECTV 8", "group": "intelsat", "lat": 0.022220075754752124, "lon": 32.12263944273995, "alt_km": 35794.81760085688, "timestamp": "2025-12-09T04:51:47.175693+00:00", "meta": {"OBJECT_NAME": "DIRECTV 8", "OBJECT_ID": "2005-019A", "EPOCH": "2025-12-08T16:27:43.322112", "MEAN_MOTION": 1.00271726, "ECCENTRICITY": 0.00032, "INCLINATION": 0.017, "RA_OF_ASC_NODE": 2.9387, "ARG_OF_PERICENTER": 258.9948, "MEAN_ANOMALY": 303.6393, "EPHEMERIS_TYPE": 0, "CLASSIFICATION_TYPE": "U", "NORAD_CAT_ID": 28659, "ELEMENT_SET_NO": 999, "REV_AT_EPOCH": 7516, "BSTAR": 0, "MEAN_MOTION_DOT": 3e-08, "MEAN_MOTION_DDOT": 0}, "tle": {"line1": "1 28659U 05019A   25342.68591808  .00000003  00000+0  00000+0 0  9997", "line2": "2 28659   0.0170   2.9387 0003200 258.9948 303.6393  1.00271726 75161"}}, "geometry": {"type": "Point", "coordinates": [32.12263944273995, 0.022220075754752124]}}, {"type": "Feature", "properties": {"norad_id": 28702, "name": "GALAXY 28 (G-28)", "group": "intelsat", "lat": -0.8870489786542719, "lon": 62.48830451107401, "alt_km": 35797.172550503914, "timestamp": "2025-12-09T04:51:47.175710+00:00", "meta": {"OBJECT_NAME": "GALAXY 28 (G-28)", "OBJECT_ID": "2005-022A", "EPOCH": "2025-12-08T14:53:37.334400", "MEAN_MOTION": 1.00271292, "ECCENTRICITY": 0.0002667, "INCLINATION": 2.8081, "RA_OF_ASC_NODE": 81.3297, "ARG_OF_PERICENTER": 178.1657, "MEAN_ANOMALY": 312.8506, "EPHEMERIS_TYPE": 0, "CLASSIFICATION_TYPE": "U", "NORAD_CAT_ID": 28702, "ELEMENT_SET_NO": 999, "REV_AT_EPOCH": 5006, "BSTAR": 0, "MEAN_MOTION_DOT": -1.86e-06, "MEAN_MOTION_DDOT": 0}, "tle": {"line1": "1 28702U 05022A   25342.62057100 -.00000186  00000+0  00000+0 0  9999", "line2": "2 28702   2.8081  81.3297 0002667 178.1657 312.8506  1.00271292 50066"}}, "geometry": {"type": "Point", "coordinates": [62.48830451107401, -0.8870489786542719]}}, {"type": "Feature", "properties": {"norad_id": 29236, "name": "GALAXY 16 (G-16)", "group": "intelsat", "lat": 0.0018867905262749214, "lon": 52.13991403879269, "alt_km": 35797.4570205913, "timestamp": "2025-12-09T04:51:47.175734+00:00", "meta": {"OBJECT_NAME": "GALAXY 16 (G-16)", "OBJECT_ID": "2006-023A", "EPOCH": "2025-12-08T14:50:30.133248", "MEAN_MOTION": 1.00272594, "ECCENTRICITY": 0.0002898, "INCLINATION": 0.0102, "RA_OF_ASC_NODE": 98.5985, "ARG_OF_PERICENTER": 152.684, "MEAN_ANOMALY": 309.9515, "EPHEMERIS_TYPE": 0, "CLASSIFICATION_TYPE": "U", "NORAD_CAT_ID": 29236, "ELEMENT_SET_NO": 999, "REV_AT_EPOCH": 7106, "BSTAR": 0, "MEAN_MOTION_DOT": -1.25e-06, "MEAN_MOTION_DDOT": 0}, "tle": {"line1": "1 29236U 06023A   25342.61840432 -.00000125  00000+0  00000+0 0  9994", "line2": "2 29236   0.0102  98.5985 0002898 152.6840 309.9515  1.00272594 71060"}}, "geometry": {"type": "Point", "coordinates": [52.13991403879269, 0.0018867905262749214]}}, {"type": "Feature", "properties": {"norad_id": 29494, "name": "DIRECTV 9S", "group": "intelsat", "lat": -1.0406360419021827, "lon": 49.960676532895896, "alt_km": 35798.22198846825, "timestamp": "2025-12-09T04:51:47.175749+00:00", "meta": {"OBJECT_NAME": "DIRECTV 9S", "OBJECT_ID": "2006-043A", "EPOCH": "2025-12-08T16:32:50.333280", "MEAN_MOTION": 1.00270645, "ECCENTRICITY": 0.0003192, "INCLINATION": 1.9297, "RA_OF_ASC_NODE": 83.2481, "ARG_OF_PERICENTER": 176.9714, "MEAN_ANOMALY": 324.469, "EPHEMERIS_TYPE": 0, "CLASSIFICATION_TYPE": "U", "NORAD_CAT_ID": 29494, "ELEMENT_SET_NO": 999, "REV_AT_EPOCH": 4947, "BSTAR": 0, "MEAN_MOTION_DOT": -1.11e-06, "MEAN_MOTION_DDOT": 0}, "tle": {"line1": "1 29494U 06043A   25342.68947145 -.00000111  00000+0  00000+0 0  9993", "line2": "2 29494   1.9297  83.2481 0003192 176.9714 324.4690  1.00270645 49471"}}, "geometry": {"type": "Point", "coordinates": [49.960676532895896, -1.0406360419021827]}}, {"type": "Feature", "properties": {"norad_id": 31307, "name": "GALAXY 17 (G-17)", "group": "intelsat", "lat": -0.6727582379420298, "lon": 66.1582661808467, "alt_km": 35811.85389269339, "timestamp": "2025-12-09T04:51:47.175761+00:00", "meta": {"OBJECT_NAME": "GALAXY 17 (G-17)", "OBJECT_ID": "2007-016B", "EPOCH": "2025-12-08T14:54:44.727264", "MEAN_MOTION": 1.00272609, "ECCENTRICITY": 0.0006117, "INCLINATION": 2.4895, "RA_OF_ASC_NODE": 82.3282, "ARG_OF_PERICENTER": 161.5836, "MEAN_ANOMALY": 332.4014, "EPHEMERIS_TYPE": 0, "CLASSIFICATION_TYPE": "U", "NORAD_CAT_ID": 31307, "ELEMENT_SET_NO": 999, "REV_AT_EPOCH": 6789, "BSTAR": 0, "MEAN_MOTION_DOT": -2.05e-06, "MEAN_MOTION_DDOT": 0}, "tle": {"line1": "1 31307U 07016B   25342.62135101 -.00000205  00000+0  00000+0 0  9999", "line2": "2 31307   2.4895  82.3282 0006117 161.5836 332.4014  1.00272609 67898"}}, "geometry": {"type": "Point", "coordinates": [66.1582661808467, -0.6727582379420298]}}, {"type": "Feature", "properties": {"norad_id": 31862, "name": "DIRECTV 10", "group": "intelsat", "lat": -0.004228578896135233, "lon": 48.35899481502721, "alt_km": 35787.64849568061, "timestamp": "2025-12-09T04:51:47.175773+00:00", "meta": {"OBJECT_NAME": "DIRECTV 10", "OBJECT_ID": "2007-032A", "EPOCH": "2025-12-08T14:49:37.716096", "MEAN_MOTION": 1.00272413, "ECCENTRICITY": 4.12e-05, "INCLINATION": 0.0164, "RA_OF_ASC_NODE": 163.1981, "ARG_OF_PERICENTER": 60.4028, "MEAN_ANOMALY": 333.6449, "EPHEMERIS_TYPE": 0, "CLASSIFICATION_TYPE": "U", "NORAD_CAT_ID": 31862, "ELEMENT_SET_NO": 999, "REV_AT_EPOCH": 4368, "BSTAR": 0, "MEAN_MOTION_DOT": -1.01e-06, "MEAN_MOTION_DDOT": 0}, "tle": {"line1": "1 31862U 07032A   25342.61779764 -.00000101  00000+0  00000+0 0  9996", "line2": "2 31862   0.0164 163.1981 0000412  60.4028 333.6449  1.00272413 43682"}}, "geometry": {"type": "Point", "coordinates": [48.35899481502721, -0.004228578896135233]}}, {"type": "Feature", "properties": {"norad_id": 32253, "name": "INTELSAT 11 (IS-11)", "group": "intelsat", "lat": -2.286535486608017, "lon": 32.4990615401674, "alt_km": 36165.83894868553, "timestamp": "2025-12-09T04:51:47.175785+00:00", "meta": {"OBJECT_NAME": "INTELSAT 11 (IS-11)", "OBJECT_ID": "2007-044B", "EPOCH": "2025-12-08T16:28:28.250112", "MEAN_MOTION": 0.99047638, "ECCENTRICITY": 0.0009151, "INCLINATION": 3.0696, "RA_OF_ASC_NODE": 81.0191, "ARG_OF_PERICENTER": 164.2343, "MEAN_ANOMALY": 323.0852, "EPHEMERIS_TYPE": 0, "CLASSIFICATION_TYPE": "U", "NORAD_CAT_ID": 32253, "ELEMENT_SET_NO": 999, "REV_AT_EPOCH": 6656, "BSTAR": 0, "MEAN_MOTION_DOT": 6.8e-07, "MEAN_MOTION_DDOT": 0}, "tle": {"line1": "1 32253U 07044B   25342.68643808  .00000068  00000+0  00000+0 0  9991", "line2": "2 32253   3.0696  81.0191 0009151 164.2343 323.0852  0.99047638 66562"}}, "geometry": {"type": "Point", "coordinates": [32.4990615401674, -2.286535486608017]}}, {"type": "Feature", "properties": {"norad_id": 32388, "name": "HORIZONS-2", "group": "intelsat", "lat": -0.18545405402545018, "lon": 77.3757140652834, "alt_km": 35807.35953763372, "timestamp": "2025-12-09T04:51:47.175797+00:00", "meta": {"OBJECT_NAME": "HORIZONS-2", "OBJECT_ID": "2007-063B", "EPOCH": "2025-12-08T18:23:18.352032", "MEAN_MOTION": 1.00270651, "ECCENTRICITY": 0.0005041, "INCLINATION": 2.1111, "RA_OF_ASC_NODE": 83.001, "ARG_OF_PERICENTER": 186.2758, "MEAN_ANOMALY": 10.5368, "EPHEMERIS_TYPE": 0, "CLASSIFICATION_TYPE": "U", "NORAD_CAT_ID": 32388, "ELEMENT_SET_NO": 999, "REV_AT_EPOCH": 6590, "BSTAR": 0, "MEAN_MOTION_DOT": -2.52e-06, "MEAN_MOTION_DDOT": 0}, "tle": {"line1": "1 32388U 07063B   25342.76618463 -.00000252  00000+0  00000+0 0  9995", "line2": "2 32388   2.1111  83.0010 0005041 186.2758  10.5368  1.00270651 65906"}}, "geometry": {"type": "Point", "coordinates": [77.3757140652834, -0.18545405402545018]}}, {"type": "Feature", "properties": {"norad_id": 32729, "name": "DIRECTV 11", "group": "intelsat", "lat": 0.005869227443432666, "lon": 51.94806070232375, "alt_km": 35787.764342990245, "timestamp": "2025-12-09T04:51:47.175808+00:00", "meta": {"OBJECT_NAME": "DIRECTV 11", "OBJECT_ID": "2008-013A", "EPOCH": "2025-12-08T14:50:30.133248", "MEAN_MOTION": 1.00272881, "ECCENTRICITY": 5.27e-05, "INCLINATION": 0.0228, "RA_OF_ASC_NODE": 202.5194, "ARG_OF_PERICENTER": 2.0786, "MEAN_ANOMALY": 356.4573, "EPHEMERIS_TYPE": 0, "CLASSIFICATION_TYPE": "U", "NORAD_CAT_ID": 32729, "ELEMENT_SET_NO": 999, "REV_AT_EPOCH": 4368, "BSTAR": 0, "MEAN_MOTION_DOT": -1.24e-06, "MEAN_MOTION_DDOT": 0}, "tle": {"line1": "1 32729U 08013A   25342.61840432 -.00000124  00000+0  00000+0 0  9995", "line2": "2 32729   0.0228 202.5194 0000527   2.0786 356.4573  1.00272881 43680"}}, "geometry": {"type": "Point", "coordinates": [51.94806070232375, 0.005869227443432666]}}, {"type": "Feature", "properties": {"norad_id": 32951, "name": "GALAXY 18 (G-18)", "group": "intelsat", "lat": 0.025936705386530295, "lon": 28.159088685896812, "alt_km": 35794.29591534349, "timestamp": "2025-12-09T04:51:47.175820+00:00", "meta": {"OBJECT_NAME": "GALAXY 18 (G-18)", "OBJECT_ID": "2008-024A", "EPOCH": "2025-12-08T16:26:20.954400", "MEAN_MOTION": 1.00272367, "ECCENTRICITY": 0.0003206, "INCLINATION": 0.0146, "RA_OF_ASC_NODE": 291.0738, "ARG_OF_PERICENTER": 328.7895, "MEAN_ANOMALY": 301.3998, "EPHEMERIS_TYPE": 0, "CLASSIFICATION_TYPE": "U", "NORAD_CAT_ID": 32951, "ELEMENT_SET_NO": 999, "REV_AT_EPOCH": 4394, "BSTAR": 0, "MEAN_MOTION_DOT": 2.7e-07, "MEAN_MOTION_DDOT": 0}, "tle": {"line1": "1 32951U 08024A   25342.68496475  .00000027  00000+0  00000+0 0  9996", "line2": "2 32951   0.0146 291.0738 0003206 328.7895 301.3998  1.00272367 43947"}}, "geometry": {"type": "Point", "coordinates": [28.159088685896812, 0.025936705386530295]}}]}